TURKMENALEM52E/MONACOSAT
1 40617U 15023A   21189.52842609  .00000114  00000-0  00000-0 0  9992
2 40617   0.0214  78.7433 0002320  24.4419  65.7340  1.00272130 22746
DIRECTV 15              
1 40663U 15026A   21189.49754456 -.00000093  00000-0  00000-0 0  9991
2 40663   0.0212  79.6405 0000807 165.1362 118.1347  1.00275070 22366
SKY MEXICO-1            
1 40664U 15026B   21189.37370385 -.00000224  00000-0  00000-0 0  9990
2 40664   0.0156  36.2193 0001845  74.6097 231.4635  1.00270721 22377
METEOSAT-11 (MSG-4)     
1 40732U 15034A   21189.30263539  .00000004  00000-0  00000-0 0  9995
2 40732   0.1550 143.8753 0000600 301.2061 309.9683  1.00269873 21927
STAR ONE C4             
1 40733U 15034B   21189.50408726 -.00000255  00000-0  00000-0 0  9996
2 40733   0.0202   6.7355 0002345  79.7146 311.6800  1.00273422 21921
WGS F7 (USA 263)        
1 40746U 15036A   21189.59129146  .00000027  00000-0  00000-0 0  9993
2 40746   0.0076  22.0109 0000371 171.4977 121.1074  1.00269328 21782
INTELSAT 34 (IS-34)     
1 40874U 15039A   21189.50670434 -.00000275  00000-0  00000-0 0  9996
2 40874   0.0256 302.3320 0000755  47.2047  64.0496  1.00270359 21539
EUTELSAT 8 WEST B       
1 40875U 15039B   21189.44435782 -.00000055  00000-0  00000-0 0  9991
2 40875   0.0622   3.2756 0005708  88.0810 347.2142  1.00271252 21561
GSAT-6                  
1 40880U 15041A   21189.48320804 -.00000150  00000-0  00000-0 0  9998
2 40880   0.0252 286.0690 0003776 200.6722  56.3669  1.00270947 21530
INMARSAT 5-F3           
1 40882U 15042A   21189.05141169  .00000060  00000-0  00000-0 0  9998
2 40882   0.0287  45.2323 0000372 265.4890 173.5995  1.00269548 21474
MUOS-4                  
1 40887U 15044A   21189.53296236 -.00000081  00000-0  00000-0 0  9998
2 40887   2.6419 354.8825 0053012   2.9462 195.7773  1.00272627 21469
TJS-1                   
1 40892U 15046A   21189.54897090 -.00000145  00000-0  00000-0 0  9993
2 40892   0.0535 222.6760 0003217 189.3589 227.3593  1.00272720 21464
EXPRESS-AM8             
1 40895U 15048A   21189.58698419 -.00000101  00000-0  00000-0 0  9998
2 40895   0.0440 209.7530 0000248 276.0444 358.2662  1.00272121 21284
BEIDOU 20               
1 40938U 15053A   21189.35890240 -.00000126  00000-0  00000-0 0  9990
2 40938  52.0299 279.8250 0048042 192.6477  39.7307  1.00279007 21255
SKY MUSTER 1 (NBN1A)    
1 40940U 15054A   21189.58938337 -.00000269  00000-0  00000-0 0  9997
2 40940   0.0199   8.3027 0001529  97.5773 173.3004  1.00270322 21168
ARSAT 2                 
1 40941U 15054B   21189.50190635 -.00000214  00000-0  00000-0 0  9991
2 40941   0.0175 315.8251 0001558 148.2141 282.3042  1.00271436 21220
MORELOS 3               
1 40946U 15056A   21189.58899391 -.00000028  00000-0  00000-0 0  9994
2 40946   4.2183 330.8533 0003166 178.6575 236.1731  1.00271708 21195
APSTAR 9                
1 40982U 15059A   21189.61812742 -.00000255  00000-0  00000-0 0  9998
2 40982   0.0419 160.0616 0001812 301.9606 189.3052  1.00272420 21050
TURKSAT 4B              
1 40984U 15060A   21189.52798991  .00000125  00000-0  00000-0 0  9996
2 40984   0.0232 304.3181 0001842 163.9239  58.5019  1.00274756 21016
CHINASAT 2C (ZX 2C)     
1 41021U 15063A   21188.03135003 -.00000313  00000-0  00000-0 0  9996
2 41021   0.0306 209.0413 0002223 251.1156 299.7288  1.00268800 20909
GSAT-15                 
1 41028U 15065A   21189.53667065 -.00000248  00000-0  00000-0 0  9996
2 41028   0.0409 247.9125 0003387 203.6295 121.8673  1.00272605 20719
BADR-7 (ARABSAT-6B)     
1 41029U 15065B   21189.30786955  .00000155  00000-0  00000-0 0  9998
2 41029   0.0580 242.7087 0004050 327.6159 212.9880  1.00268944 20661
LAOSAT 1                
1 41034U 15067A   21189.54364951 -.00000333  00000-0  00000-0 0  9999
2 41034   0.0078 118.5626 0000945 309.2269 183.1161  1.00275090 20767
TELSTAR 12V             
1 41036U 15068A   21189.44331100 -.00000108  00000-0  00000-0 0  9991
2 41036   0.0187  34.1205 0001716  66.0873 330.9917  1.00271959 20527
CHINASAT 1C (ZX 1C)     
1 41103U 15073A   21189.60608887 -.00000142  00000-0  00000-0 0  9997
2 41103   2.5454  88.7258 0002387  10.3264 127.2817  1.00271422 20565
ELEKTRO-L 2             
1 41105U 15074A   21189.44339823 -.00000107  00000-0  00000-0 0  9994
2 41105   2.1341  92.2610 0002370  50.7421 288.7427  1.00271682 20417
COSMOS 2513             
1 41121U 15075A   21189.39053324 -.00000129  00000-0  00000-0 0  9990
2 41121   0.0695 109.7414 0002412  12.7988  24.8575  1.00273108 20433
EXPRESS-AMU1            
1 41191U 15082A   21189.52528560  .00000166  00000-0  00000-0 0  9999
2 41191   0.0164 348.3342 0002854 137.7088  25.8680  1.00275567 20182
GAOFEN 4                
1 41194U 15083A   21189.61783782 -.00000324  00000-0  00000+0 0  9998
2 41194   0.0913 266.2063 0002090 281.1363  67.5987  1.00269903 20390
BELINTERSAT-1           
1 41238U 16001A   21189.52833885  .00000117  00000-0  00000-0 0  9998
2 41238   0.0058 226.0073 0001568 221.8178  80.5463  1.00273066 20162
IRNSS-1E                
1 41241U 16003A   21186.66910236 -.00000313  00000-0  00000-0 0  9991
2 41241  29.2137  90.0730 0018050 180.7806   5.6951  1.00272505 19953
EUTELSAT 9B             
1 41310U 16005A   21189.37631378  .00000072  00000-0  00000-0 0  9999
2 41310   0.0639  76.3914 0001549 170.4925 184.1035  1.00272111 20016
SES-9                   
1 41380U 16013A   21189.39611633 -.00000335  00000-0  00000-0 0  9992
2 41380   0.0406 284.1603 0001832 171.2877  82.0125  1.00270474 19349
EUTELSAT 65 WEST A      
1 41382U 16014A   21189.28972446 -.00000265  00000-0  00000-0 0  9997
2 41382   0.0457   4.9776 0001738 108.2117 212.3400  1.00269314 19444
IRNSS-1F                
1 41384U 16015A   21189.16560352  .00000170  00000-0  00000-0 0  9990
2 41384   1.9487 185.8710 0019272 189.1069   3.3789  1.00267391 19566
BEIDOU IGSO-6           
1 41434U 16021A   21188.95796110 -.00000158  00000-0  00000-0 0  9999
2 41434  57.5901  56.4234 0037998 212.5421  97.9008  1.00265175 19372
IRNSS-1G                
1 41469U 16027A   21189.54382398 -.00000324  00000-0  00000-0 0  9993
2 41469   1.9266 189.4591 0006014 273.5017 148.9925  1.00275870 19089
JCSAT-2B                
1 41471U 16028A   21189.28485139 -.00000155  00000-0  00000-0 0  9997
2 41471   0.0008   8.8223 0001750 101.7152  72.4472  1.00271858 19020
THAICOM 8               
1 41552U 16031A   21189.46189225 -.00000111  00000-0  00000-0 0  9990
2 41552   0.0592  72.7195 0003855   4.8392  93.8285  1.00271396 18624
INTELSAT 31 (IS-31)     
1 41581U 16035A   21189.42734681 -.00000140  00000-0  00000-0 0  9996
2 41581   0.0139  34.6373 0001900 195.4869 115.2526  1.00268853 18501
BEIDOU-2 G7             
1 41586U 16037A   21189.54007285 -.00000346  00000-0  00000-0 0  9997
2 41586   1.7434  67.6220 0008792  19.3504 144.7058  1.00270174 18691
ABS-2A (MONGOLSAT-1)    
1 41588U 16038A   21189.53296236 -.00000074  00000-0  00000-0 0  9993
2 41588   0.0232  25.4282 0002135 353.6566 174.2048  1.00269280 18613
EUTELSAT 117 WEST B     
1 41589U 16038B   21189.58523013 -.00000001  00000-0  00000-0 0  9995
2 41589   0.0117 215.9249 0000476 236.7196 287.7732  1.00272512 18578
BRISAT                  
1 41591U 16039A   21189.28124830 -.00000187  00000-0  00000-0 0  9995
2 41591   0.0214  27.8137 0001849  77.4978  72.8965  1.00269579 18523
ECHOSTAR 18             
1 41592U 16039B   21189.50583198 -.00000272  00000-0  00000-0 0  9992
2 41592   0.0040 101.5771 0001252   6.5011 299.3306  1.00271377 18539
MUOS-5                  
1 41622U 16041A   21189.59524074 -.00000114  00000-0  00000-0 0  9991
2 41622   6.4015 303.7869 0201869 226.1582 226.0572  1.00272199 18993
TIANTONG-1 1            
1 41725U 16048A   21189.53824090 -.00000305  00000-0  00000-0 0  9999
2 41725   2.5191 344.3927 0003333 106.6342 130.8513  1.00272286 18171
JCSAT-16                
1 41729U 16050A   21189.54277715 -.00000347  00000-0  00000-0 0  9999
2 41729   0.0344  79.6800 0001550 163.0308   3.3182  1.00270211 17973
USA 270                 
1 41744U 16052A   21172.66880971 -.00000005  00000-0  00000+0 0  9997
2 41744   0.0754 106.0109 0009009 215.7122 256.0719  1.00272097   472
USA 271                 
1 41745U 16052B   21181.28058340 -.00000370  00000-0  00000+0 0  9998
2 41745   0.9983  96.4082 0000585 185.8769 211.2385  1.00429581   566
INTELSAT 36 (IS-36)     
1 41747U 16053A   21189.53174105 -.00000014  00000-0  00000-0 0  9991
2 41747   0.0103  23.7402 0002572 345.4003 177.4747  1.00271299 17873
INTELSAT 33E (IS-33E)   
1 41748U 16053B   21189.54599694  .00000059  00000-0  00000-0 0  9995
2 41748   0.0184 359.2332 0001314 137.4274  46.6022  1.00271380 18150
INSAT-3DR               
1 41752U 16054A   21189.38922470 -.00000067  00000-0  00000-0 0  9995
2 41752   0.0525  98.3316 0009725 169.2817 233.0499  1.00272326 17719
GSAT-18                 
1 41793U 16060A   21189.53278789 -.00000066  00000-0  00000-0 0  9990
2 41793   0.0249  84.9742 0002877 333.0197 134.4533  1.00270775 17443
SKY MUSTER 2 (NBN1B)    
1 41794U 16060B   21189.58938337 -.00000235  00000-0  00000-0 0  9996
2 41794   0.0211 348.1971 0001369 118.4463 177.0822  1.00269169 17425
HIMAWARI-9              
1 41836U 16064A   21189.58938337 -.00000265  00000-0  00000-0 0  9990
2 41836   0.0132 332.5100 0000998 149.2168 157.9507  1.00270371 17093
SHIJIAN-17 (SJ-17)      
1 41838U 16065A   21189.63227441 -.00000354  00000-0  00000+0 0  9994
2 41838   1.1736  92.8799 0004622  11.6353 167.3801  1.00268145 17136
GOES 16                 
1 41866U 16071A   21189.50304043 -.00000238  00000-0  00000-0 0  9994
2 41866   0.0989 102.5837 0001262  49.7331 240.3072  1.00271105 17011
TIANLIAN 1-04           
1 41869U 16072A   21189.62501906  .00000041  00000-0  00000-0 0  9999
2 41869   0.0647 107.3104 0025109 356.2948 225.0280  1.00269433 17204
